ONEWEB-0685             
1 54679U 22166AP  26151.21247240  .00000074  00000+0  14860-3 0  9997
2 54679  87.9252 247.3584 0002086  91.6419 268.4954 13.21819667169171
ONEWEB-0712             
1 54680U 22166AQ  26151.18868907  .00000020  00000+0  18789-4 0  9990
2 54680  87.9106 232.1490 0001847  85.3798 274.7543 13.16592962169829
ONEWEB-0714             
1 54681U 22166AR  26151.21727064  .00000082  00000+0  16620-3 0  9992
2 54681  87.9256 247.3546 0001940  93.2448 266.8908 13.21827526169291
ONEWEB-0532             
1 55140U 23004A   26151.09956720  .00000058  00000+0  11522-3 0  9993
2 55140  87.9145   9.2638 0002100  92.8523 267.2849 13.17647773165333
ONEWEB-0533             
1 55141U 23004B   26151.07533755  .00000213  00000+0  55614-3 0  9994
2 55141  87.8951 354.0743 0001957  83.4662 276.6689 13.12443584165813
ONEWEB-0541             
1 55142U 23004C   26151.16813457  .00000586  00000+0  16185-2 0  9997
2 55142  87.8911  24.4435 0001755  88.3968 271.7361 13.11418811163719
ONEWEB-0543             
1 55143U 23004D   26150.93990815  .00000020  00000+0  18767-4 0  9999
2 55143  87.9157 338.9034 0001691  83.9400 276.1924 13.18688494167421
ONEWEB-0544             
1 55144U 23004E   26151.08491396  .00000132  00000+0  30153-3 0  9993
2 55144  87.9155 338.8742 0001610  91.3804 268.7513 13.18686443167442
ONEWEB-0560             
1 55145U 23004F   26151.07817382  .00000010  00000+0 -74672-5 0  9992
2 55145  87.9158 338.8650 0001560  89.3860 270.7451 13.18685736167456
ONEWEB-0565             
1 55146U 23004G   26151.07142007  .00000055  00000+0  10568-3 0  9998
2 55146  87.9147 338.8955 0001705 103.3537 256.7785 13.18686747167448
ONEWEB-0567             
1 55147U 23004H   26151.06468058  .00000061  00000+0  12162-3 0  9994
2 55147  87.9156 338.8797 0001579  99.9101 260.2210 13.18685952167449
ONEWEB-0569             
1 55148U 23004J   26150.94433389  .00000157  00000+0  39401-3 0  9991
2 55148  87.8951 323.6533 0000925 106.4872 253.6358 13.13468610167911
ONEWEB-0570             
1 55149U 23004K   26151.05624264  .00000034  00000+0  52421-4 0  9991
2 55149  87.9156 338.8794 0002109 100.8614 259.2755 13.18688346167430
ONEWEB-0571             
1 55150U 23004L   26150.97362152  .00000051  00000+0  95822-4 0  9999
2 55150  87.9154 338.8948 0001395 132.8773 227.2476 13.18688321167436
ONEWEB-0572             
1 55151U 23004M   26151.12993728  .00000099  00000+0  22107-3 0  9994
2 55151  87.9144   9.2586 0001733  93.6533 266.4797 13.17651577165236
ONEWEB-0573             
1 55152U 23004N   26150.96688220  .00000064  00000+0  13029-3 0  9999
2 55152  87.9156 338.8976 0001507 120.2291 239.8990 13.18687344167425
