[{"OBJECT_NAME":"ONEWEB-0685","OBJECT_ID":"2022-166AP","EPOCH":"2026-05-31T05:05:57.615360","MEAN_MOTION":13.21819667,"ECCENTRICITY":0.0002086,"INCLINATION":87.9252,"RA_OF_ASC_NODE":247.3584,"ARG_OF_PERICENTER":91.6419,"MEAN_ANOMALY":268.4954,"EPHEMERIS_TYPE":0,"CLASSIFICATION_TYPE":"U","NORAD_CAT_ID":54679,"ELEMENT_SET_NO":999,"REV_AT_EPOCH":16917,"BSTAR":0.0001486,"MEAN_MOTION_DOT":7.4e-07,"MEAN_MOTION_DDOT":0.0},{"OBJECT_NAME":"ONEWEB-0712","OBJECT_ID":"2022-166AQ","EPOCH":"2026-05-31T04:31:42.735648","MEAN_MOTION":13.16592962,"ECCENTRICITY":0.0001847,"INCLINATION":87.9106,"RA_OF_ASC_NODE":232.149,"ARG_OF_PERICENTER":85.3798,"MEAN_ANOMALY":274.7543,"EPHEMERIS_TYPE":0,"CLASSIFICATION_TYPE":"U","NORAD_CAT_ID":54680,"ELEMENT_SET_NO":999,"REV_AT_EPOCH":16982,"BSTAR":1.8789000000000003e-05,"MEAN_MOTION_DOT":2e-07,"MEAN_MOTION_DDOT":0.0},{"OBJECT_NAME":"ONEWEB-0714","OBJECT_ID":"2022-166AR","EPOCH":"2026-05-31T05:12:52.183296","MEAN_MOTION":13.21827526,"ECCENTRICITY":0.000194,"INCLINATION":87.9256,"RA_OF_ASC_NODE":247.3546,"ARG_OF_PERICENTER":93.2448,"MEAN_ANOMALY":266.8908,"EPHEMERIS_TYPE":0,"CLASSIFICATION_TYPE":"U","NORAD_CAT_ID":54681,"ELEMENT_SET_NO":999,"REV_AT_EPOCH":16929,"BSTAR":0.0001662,"MEAN_MOTION_DOT":8.2e-07,"MEAN_MOTION_DDOT":0.0},{"OBJECT_NAME":"ONEWEB-0532","OBJECT_ID":"2023-004A","EPOCH":"2026-05-31T02:23:22.606080","MEAN_MOTION":13.17647773,"ECCENTRICITY":0.00021,"INCLINATION":87.9145,"RA_OF_ASC_NODE":9.2638,"ARG_OF_PERICENTER":92.8523,"MEAN_ANOMALY":267.2849,"EPHEMERIS_TYPE":0,"CLASSIFICATION_TYPE":"U","NORAD_CAT_ID":55140,"ELEMENT_SET_NO":999,"REV_AT_EPOCH":16533,"BSTAR":0.00011522000000000001,"MEAN_MOTION_DOT":5.8e-07,"MEAN_MOTION_DDOT":0.0},{"OBJECT_NAME":"ONEWEB-0533","OBJECT_ID":"2023-004B","EPOCH":"2026-05-31T01:48:29.164320","MEAN_MOTION":13.12443584,"ECCENTRICITY":0.0001957,"INCLINATION":87.8951,"RA_OF_ASC_NODE":354.0743,"ARG_OF_PERICENTER":83.4662,"MEAN_ANOMALY":276.6689,"EPHEMERIS_TYPE":0,"CLASSIFICATION_TYPE":"U","NORAD_CAT_ID":55141,"ELEMENT_SET_NO":999,"REV_AT_EPOCH":16581,"BSTAR":0.00055614,"MEAN_MOTION_DOT":2.13e-06,"MEAN_MOTION_DDOT":0.0},{"OBJECT_NAME":"ONEWEB-0541","OBJECT_ID":"2023-004C","EPOCH":"2026-05-31T04:02:06.826848","MEAN_MOTION":13.11418811,"ECCENTRICITY":0.0001755,"INCLINATION":87.8911,"RA_OF_ASC_NODE":24.4435,"ARG_OF_PERICENTER":88.3968,"MEAN_ANOMALY":271.7361,"EPHEMERIS_TYPE":0,"CLASSIFICATION_TYPE":"U","NORAD_CAT_ID":55142,"ELEMENT_SET_NO":999,"REV_AT_EPOCH":16371,"BSTAR":0.0016185,"MEAN_MOTION_DOT":5.86e-06,"MEAN_MOTION_DDOT":0.0},{"OBJECT_NAME":"ONEWEB-0543","OBJECT_ID":"2023-004D","EPOCH":"2026-05-30T22:33:28.064160","MEAN_MOTION":13.18688494,"ECCENTRICITY":0.0001691,"INCLINATION":87.9157,"RA_OF_ASC_NODE":338.9034,"ARG_OF_PERICENTER":83.94,"MEAN_ANOMALY":276.1924,"EPHEMERIS_TYPE":0,"CLASSIFICATION_TYPE":"U","NORAD_CAT_ID":55143,"ELEMENT_SET_NO":999,"REV_AT_EPOCH":16742,"BSTAR":1.8767000000000002e-05,"MEAN_MOTION_DOT":2e-07,"MEAN_MOTION_DDOT":0.0},{"OBJECT_NAME":"ONEWEB-0544","OBJECT_ID":"2023-004E","EPOCH":"2026-05-31T02:02:16.566144","MEAN_MOTION":13.18686443,"ECCENTRICITY":0.000161,"INCLINATION":87.9155,"RA_OF_ASC_NODE":338.8742,"ARG_OF_PERICENTER":91.3804,"MEAN_ANOMALY":268.7513,"EPHEMERIS_TYPE":0,"CLASSIFICATION_TYPE":"U","NORAD_CAT_ID":55144,"ELEMENT_SET_NO":999,"REV_AT_EPOCH":16744,"BSTAR":0.00030153000000000005,"MEAN_MOTION_DOT":1.32e-06,"MEAN_MOTION_DDOT":0.0},{"OBJECT_NAME":"ONEWEB-0560","OBJECT_ID":"2023-004F","EPOCH":"2026-05-31T01:52:34.218048","MEAN_MOTION":13.18685736,"ECCENTRICITY":0.000156,"INCLINATION":87.9158,"RA_OF_ASC_NODE":338.865,"ARG_OF_PERICENTER":89.386,"MEAN_ANOMALY":270.7451,"EPHEMERIS_TYPE":0,"CLASSIFICATION_TYPE":"U","NORAD_CAT_ID":55145,"ELEMENT_SET_NO":999,"REV_AT_EPOCH":16745,"BSTAR":-7.467200000000001e-06,"MEAN_MOTION_DOT":1e-07,"MEAN_MOTION_DDOT":0.0},{"OBJECT_NAME":"ONEWEB-0565","OBJECT_ID":"2023-004G","EPOCH":"2026-05-31T01:42:50.694048","MEAN_MOTION":13.18686747,"ECCENTRICITY":0.0001705,"INCLINATION":87.9147,"RA_OF_ASC_NODE":338.8955,"ARG_OF_PERICENTER":103.3537,"MEAN_ANOMALY":256.7785,"EPHEMERIS_TYPE":0,"CLASSIFICATION_TYPE":"U","NORAD_CAT_ID":55146,"ELEMENT_SET_NO":999,"REV_AT_EPOCH":16744,"BSTAR":0.00010568,"MEAN_MOTION_DOT":5.5e-07,"MEAN_MOTION_DDOT":0.0},{"OBJECT_NAME":"ONEWEB-0567","OBJECT_ID":"2023-004H","EPOCH":"2026-05-31T01:33:08.402112","MEAN_MOTION":13.18685952,"ECCENTRICITY":0.0001579,"INCLINATION":87.9156,"RA_OF_ASC_NODE":338.8797,"ARG_OF_PERICENTER":99.9101,"MEAN_ANOMALY":260.221,"EPHEMERIS_TYPE":0,"CLASSIFICATION_TYPE":"U","NORAD_CAT_ID":55147,"ELEMENT_SET_NO":999,"REV_AT_EPOCH":16744,"BSTAR":0.00012162,"MEAN_MOTION_DOT":6.1e-07,"MEAN_MOTION_DDOT":0.0},{"OBJECT_NAME":"ONEWEB-0569","OBJECT_ID":"2023-004J","EPOCH":"2026-05-30T22:39:50.448096","MEAN_MOTION":13.1346861,"ECCENTRICITY":9.25e-05,"INCLINATION":87.8951,"RA_OF_ASC_NODE":323.6533,"ARG_OF_PERICENTER":106.4872,"MEAN_ANOMALY":253.6358,"EPHEMERIS_TYPE":0,"CLASSIFICATION_TYPE":"U","NORAD_CAT_ID":55148,"ELEMENT_SET_NO":999,"REV_AT_EPOCH":16791,"BSTAR":0.00039401000000000003,"MEAN_MOTION_DOT":1.57e-06,"MEAN_MOTION_DDOT":0.0},{"OBJECT_NAME":"ONEWEB-0570","OBJECT_ID":"2023-004K","EPOCH":"2026-05-31T01:20:59.364096","MEAN_MOTION":13.18688346,"ECCENTRICITY":0.0002109,"INCLINATION":87.9156,"RA_OF_ASC_NODE":338.8794,"ARG_OF_PERICENTER":100.8614,"MEAN_ANOMALY":259.2755,"EPHEMERIS_TYPE":0,"CLASSIFICATION_TYPE":"U","NORAD_CAT_ID":55149,"ELEMENT_SET_NO":999,"REV_AT_EPOCH":16743,"BSTAR":5.2421e-05,"MEAN_MOTION_DOT":3.4e-07,"MEAN_MOTION_DDOT":0.0},{"OBJECT_NAME":"ONEWEB-0571","OBJECT_ID":"2023-004L","EPOCH":"2026-05-30T23:22:00.899328","MEAN_MOTION":13.18688321,"ECCENTRICITY":0.0001395,"INCLINATION":87.9154,"RA_OF_ASC_NODE":338.8948,"ARG_OF_PERICENTER":132.8773,"MEAN_ANOMALY":227.2476,"EPHEMERIS_TYPE":0,"CLASSIFICATION_TYPE":"U","NORAD_CAT_ID":55150,"ELEMENT_SET_NO":999,"REV_AT_EPOCH":16743,"BSTAR":9.5822e-05,"MEAN_MOTION_DOT":5.1e-07,"MEAN_MOTION_DDOT":0.0},{"OBJECT_NAME":"ONEWEB-0572","OBJECT_ID":"2023-004M","EPOCH":"2026-05-31T03:07:06.580992","MEAN_MOTION":13.17651577,"ECCENTRICITY":0.0001733,"INCLINATION":87.9144,"RA_OF_ASC_NODE":9.2586,"ARG_OF_PERICENTER":93.6533,"MEAN_ANOMALY":266.4797,"EPHEMERIS_TYPE":0,"CLASSIFICATION_TYPE":"U","NORAD_CAT_ID":55151,"ELEMENT_SET_NO":999,"REV_AT_EPOCH":16523,"BSTAR":0.00022107,"MEAN_MOTION_DOT":9.9e-07,"MEAN_MOTION_DDOT":0.0},{"OBJECT_NAME":"ONEWEB-0573","OBJECT_ID":"2023-004N","EPOCH":"2026-05-30T23:12:18.622080","MEAN_MOTION":13.18687344,"ECCENTRICITY":0.0001507,"INCLINATION":87.9156,"RA_OF_ASC_NODE":338.8976,"ARG_OF_PERICENTER":120.2291,"MEAN_ANOMALY":239.899,"EPHEMERIS_TYPE":0,"CLASSIFICATION_TYPE":"U","NORAD_CAT_ID":55152,"ELEMENT_SET_NO":999,"REV_AT_EPOCH":16742,"BSTAR":0.00013029,"MEAN_MOTION_DOT":6.4e-07,"MEAN_MOTION_DDOT":0.0}]